CTC1_L_00324016-03
1 10062U 26279JL  26075.70033565  .00000000  00000+0  00000-0 0  9993
2 10062  50.0000 180.0000 0000000   0.0000   0.0000 14.51731151    15
CTC1_L_00324016-04
1 10063U 25334HS  26075.70033565  .00000000  00000+0  00000-0 0  9995
2 10063  50.0000 180.0000 0000000   0.0000  90.0000 14.51731151    15
CTC1_L_00324017-01
1 10064U 22481JL  26075.70033565  .00000000  00000+0  00000-0 0  9996
2 10064  50.0000 192.0000 0000000   0.0000 192.0000 14.51731151    12
CTC1_L_00324017-02
1 10065U 23825YJ  26075.70033565  .00000000  00000+0  00000-0 0  9990
2 10065  50.0000 192.0000 0000000   0.0000 282.0000 14.51731151    13
CTC1_L_00324017-03
1 10066U 22745RN  26075.70033565  .00000000  00000+0  00000-0 0  9991
2 10066  50.0000 192.0000 0000000   0.0000  12.0000 14.51731151    15
CTC1_L_00324017-04
1 10067U 25839VY  26075.70033565  .00000000  00000+0  00000-0 0  9999
2 10067  50.0000 192.0000 0000000   0.0000 102.0000 14.51731151    16
CTC1_L_00324018-01
1 10068U 26294HJ  26075.70033565  .00000000  00000+0  00000-0 0  9996
2 10068  50.0000 204.0000 0000000   0.0000 204.0000 14.51731151    14
CTC1_L_00324018-02
1 10069U 26788DD  26075.70033565  .00000000  00000+0  00000-0 0  9995
2 10069  50.0000 204.0000 0000000   0.0000 294.0000 14.51731151    14
CTC1_L_00324018-03
1 10070U 24862GU  26075.70033565  .00000000  00000+0  00000-0 0  9998
2 10070  50.0000 204.0000 0000000   0.0000  24.0000 14.51731151    17
CTC1_L_00324018-04
1 10071U 26375RK  26075.70033565  .00000000  00000+0  00000-0 0  9990
2 10071  50.0000 204.0000 0000000   0.0000 114.0000 14.51731151    18
CTC1_L_00324019-01
1 10072U 22586VK  26075.70033565  .00000000  00000+0  00000-0 0  9991
2 10072  50.0000 216.0000 0000000   0.0000 216.0000 14.51731151    15
CTC1_L_00324019-02
1 10073U 24941OV  26075.70033565  .00000000  00000+0  00000-0 0  9999
2 10073  50.0000 216.0000 0000000   0.0000 306.0000 14.51731151    16
CTC1_L_00324019-03
1 10074U 22202EQ  26075.70033565  .00000000  00000+0  00000-0 0  9998
2 10074  50.0000 216.0000 0000000   0.0000  36.0000 14.51731151    17
CTC1_L_00324019-04
1 10075U 23953DM  26075.70033565  .00000000  00000+0  00000-0 0  9993
2 10075  50.0000 216.0000 0000000   0.0000 126.0000 14.51731151    18
CTC1_L_00324020-01
1 10076U 26244NW  26075.70033565  .00000000  00000+0  00000-0 0  9990
2 10076  50.0000 228.0000 0000000   0.0000 228.0000 14.51731151    15
CTC1_L_00324020-02
1 10077U 25320MR  26075.70033565  .00000000  00000+0  00000-0 0  9995
2 10077  50.0000 228.0000 0000000   0.0000 318.0000 14.51731151    16
CTC1_L_00324020-03
1 10078U 24334RX  26075.70033565  .00000000  00000+0  00000-0 0  9990
2 10078  50.0000 228.0000 0000000   0.0000  48.0000 14.51731151    17
CTC1_L_00324020-04
1 10079U 26982JN  26075.70033565  .00000000  00000+0  00000-0 0  9992
2 10079  50.0000 228.0000 0000000   0.0000 138.0000 14.51731151    18
CTC1_L_00324021-01
1 10080U 26027FH  26075.70033565  .00000000  00000+0  00000-0 0  9994
2 10080  50.0000 240.0000 0000000   0.0000 240.0000 14.51731151    18
CTC1_L_00324021-02
1 10081U 22276F   26075.70033565  .00000000  00000+0  00000-0 0  9997
2 10081  50.0000 240.0000 0000000   0.0000 330.0000 14.51731151    19
CTC1_L_00324021-03
1 10082U 25316FV  26075.70033565  .00000000  00000+0  00000-0 0  9996
2 10082  50.0000 240.0000 0000000   0.0000  60.0000 14.51731151    10
CTC1_L_00324021-04
1 10083U 26378LI  26075.70033565  .00000000  00000+0  00000-0 0  9996
2 10083  50.0000 240.0000 0000000   0.0000 150.0000 14.51731151    11
CTC1_L_00324022-01
1 10084U 23150XP  26075.70033565  .00000000  00000+0  00000-0 0  9992
2 10084  50.0000 252.0000 0000000   0.0000 252.0000 14.51731151    18
CTC1_L_00324022-02
1 10085U 24483YH  26075.70033565  .00000000  00000+0  00000-0 0  9993
2 10085  50.0000 252.0000 0000000   0.0000 342.0000 14.51731151    19
CTC1_L_00324022-03
1 10086U 22345WT  26075.70033565  .00000000  00000+0  00000-0 0  9999
2 10086  50.0000 252.0000 0000000   0.0000  72.0000 14.51731151    10
CTC1_L_00324022-04
1 10087U 25940LN  26075.70033565  .00000000  00000+0  00000-0 0  9994
2 10087  50.0000 252.0000 0000000   0.0000 162.0000 14.51731151    11
CTC1_L_00324023-01
1 10088U 26862WO  26075.70033565  .00000000  00000+0  00000-0 0  9999
2 10088  50.0000 264.0000 0000000   0.0000 264.0000 14.51731151    18
CTC1_L_00324023-02
1 10089U 22448AO  26075.70033565  .00000000  00000+0  00000-0 0  9996
2 10089  50.0000 264.0000 0000000   0.0000 354.0000 14.51731151    19
CTC1_L_00324023-03
1 10090U 24778BU  26075.70033565  .00000000  00000+0  00000-0 0  9996
2 10090  50.0000 264.0000 0000000   0.0000  84.0000 14.51731151    11
CTC1_L_00324023-04
1 10091U 25324HZ  26075.70033565  .00000000  00000+0  00000-0 0  9995
2 10091  50.0000 264.0000 0000000   0.0000 174.0000 14.51731151    12
CTC1_L_00324024-01
1 10092U 24609FD  26075.70033565  .00000000  00000+0  00000-0 0  9991
2 10092  50.0000 276.0000 0000000   0.0000 276.0000 14.51731151    19
CTC1_L_00324024-02
1 10093U 26747WQ  26075.70033565  .00000000  00000+0  00000-0 0  9997
2 10093  50.0000 276.0000 0000000   0.0000   6.0000 14.51731151    11
CTC1_L_00324024-03
1 10094U 23035AI  26075.70033565  .00000000  00000+0  00000-0 0  9995
2 10094  50.0000 276.0000 0000000   0.0000  96.0000 14.51731151    11
CTC1_L_00324024-04
1 10095U 23487WT  26075.70033565  .00000000  00000+0  00000-0 0  9997
2 10095  50.0000 276.0000 0000000   0.0000 186.0000 14.51731151    12
CTC1_L_00324025-01
1 10096U 22756JR  26075.70033565  .00000000  00000+0  00000-0 0  9996
2 10096  50.0000 288.0000 0000000   0.0000 288.0000 14.51731151    19
CTC1_L_00324025-02
1 10097U 25003QY  26075.70033565  .00000000  00000+0  00000-0 0  9995
2 10097  50.0000 288.0000 0000000   0.0000  18.0000 14.51731151    11
CTC1_L_00324025-03
1 10098U 25557FJ  26075.70033565  .00000000  00000+0  00000-0 0  9990
2 10098  50.0000 288.0000 0000000   0.0000 108.0000 14.51731151    12
CTC1_L_00324025-04
1 10099U 24007CM  26075.70033565  .00000000  00000+0  00000-0 0  9990
2 10099  50.0000 288.0000 0000000   0.0000 198.0000 14.51731151    12
CTC1_L_00324026-01
1 10100U 25239FS  26075.70033565  .00000000  00000+0  00000-0 0  9991
2 10100  50.0000 300.0000 0000000   0.0000 300.0000 14.51731151    15
CTC1_L_00324026-02
1 10101U 23382QA  26075.70033565  .00000000  00000+0  00000-0 0  9999
2 10101  50.0000 300.0000 0000000   0.0000  30.0000 14.51731151    16
CTC1_L_00324026-03
1 10102U 23938JG  26075.70033565  .00000000  00000+0  00000-0 0  9997
2 10102  50.0000 300.0000 0000000   0.0000 120.0000 14.51731151    17
CTC1_L_00324026-04
1 10103U 25572QU  26075.70033565  .00000000  00000+0  00000-0 0  9994
2 10103  50.0000 300.0000 0000000   0.0000 210.0000 14.51731151    18
CTC1_L_00324027-01
1 10104U 23326OT  26075.70033565  .00000000  00000+0  00000-0 0  9990
2 10104  50.0000 312.0000 0000000   0.0000 312.0000 14.51731151    15
CTC1_L_00324027-02
1 10105U 22944CQ  26075.70033565  .00000000  00000+0  00000-0 0  9996
2 10105  50.0000 312.0000 0000000   0.0000  42.0000 14.51731151    16
CTC1_L_00324027-03
1 10106U 24236XN  26075.70033565  .00000000  00000+0  00000-0 0  9993
2 10106  50.0000 312.0000 0000000   0.0000 132.0000 14.51731151    17
CTC1_L_00324027-04
1 10107U 26318EF  26075.70033565  .00000000  00000+0  00000-0 0  9997
2 10107  50.0000 312.0000 0000000   0.0000 222.0000 14.51731151    18
CTC1_L_00324028-01
1 10108U 23875YQ  26075.70033565  .00000000  00000+0  00000-0 0  9993
2 10108  50.0000 324.0000 0000000   0.0000 324.0000 14.51731151    15
CTC1_L_00324028-02
1 10109U 22895RC  26075.70033565  .00000000  00000+0  00000-0 0  9995
2 10109  50.0000 324.0000 0000000   0.0000  54.0000 14.51731151    16
CTC1_L_00324028-03
1 10110U 25975SW  26075.70033565  .00000000  00000+0  00000-0 0  9999
2 10110  50.0000 324.0000 0000000   0.0000 144.0000 14.51731151    18
CTC1_L_00324028-04
1 10111U 23351XX  26075.70033565  .00000000  00000+0  00000-0 0  9996
2 10111  50.0000 324.0000 0000000   0.0000 234.0000 14.51731151    19
CTC1_L_00324029-01
1 10112U 26398BH  26075.70033565  .00000000  00000+0  00000-0 0  9991
2 10112  50.0000 336.0000 0000000   0.0000 336.0000 14.51731151    16
CTC1_L_00324029-02
1 10113U 26499LN  26075.70033565  .00000000  00000+0  00000-0 0  9994
2 10113  50.0000 336.0000 0000000   0.0000  66.0000 14.51731151    17
CTC1_L_00324029-03
1 10114U 23299NP  26075.70033565  .00000000  00000+0  00000-0 0  9990
2 10114  50.0000 336.0000 0000000   0.0000 156.0000 14.51731151    18
CTC1_L_00324029-04
1 10115U 26480KU  26075.70033565  .00000000  00000+0  00000-0 0  9996
2 10115  50.0000 336.0000 0000000   0.0000 246.0000 14.51731151    19
CTC1_L_00324030-01
1 10116U 22118TW  26075.70033565  .00000000  00000+0  00000-0 0  9991
2 10116  50.0000 348.0000 0000000   0.0000 348.0000 14.51731151    16
CTC1_L_00324030-02
1 10117U 24165TB  26075.70033565  .00000000  00000+0  00000-0 0  9996
2 10117  50.0000 348.0000 0000000   0.0000  78.0000 14.51731151    17
CTC1_L_00324030-03
1 10118U 22276RX  26075.70033565  .00000000  00000+0  00000-0 0  9998
2 10118  50.0000 348.0000 0000000   0.0000 168.0000 14.51731151    18
CTC1_L_00324030-04
1 10119U 25315RV  26075.70033565  .00000000  00000+0  00000-0 0  9996
2 10119  50.0000 348.0000 0000000   0.0000 258.0000 14.51731151    19
